{
  "type": "FeatureCollection",
  "features": [
    {
      "type": "Feature",
      "properties": {
        "norad_id": 41006,
        "name": "FENGYUN 1C DEB",
        "group": "fengyun-1c-debris",
        "lat": 66.53067256637185,
        "lon": 60.04950906983639,
        "alt_km": 929.7613194535816,
        "timestamp": "2025-12-06T18:50:10.458885+00:00",
        "meta_object_name": "FENGYUN 1C DEB",
        "meta_object_id": "1999-025EXL",
        "meta_epoch": "2025-12-05T21:31:18.812928",
        "meta_mean_motion": 13.85289698,
        "meta_eccentricity": 0.01893444,
        "meta_inclination": 102.3659,
        "meta_ra_of_asc_node": 208.5327,
        "meta_arg_of_pericenter": 24.6946,
        "meta_mean_anomaly": 336.312,
        "meta_ephemeris_type": 0,
        "meta_classification_type": "U",
        "meta_norad_cat_id": 41006,
        "meta_element_set_no": 999,
        "meta_rev_at_epoch": 57394,
        "meta_bstar": 0.0043212793,
        "meta_mean_motion_dot": 5.585e-05,
        "meta_mean_motion_ddot": 0,
        "tle_line1": "1 41006U 99025EXL 25339.89674552  .00005585  00000+0  43213-2 0  9991",
        "tle_line2": "2 41006 102.3659 208.5327 0189344  24.6946 336.3120 13.85289698573941"
      },
      "geometry": {
        "type": "Point",
        "coordinates": [
          60.04950906983639,
          66.53067256637185
        ]
      }
    },
    {
      "type": "Feature",
      "properties": {
        "norad_id": 41007,
        "name": "FENGYUN 1C DEB",
        "group": "fengyun-1c-debris",
        "lat": -61.84653905475665,
        "lon": 26.37433292685552,
        "alt_km": 1018.3318493360603,
        "timestamp": "2025-12-06T18:50:10.458895+00:00",
        "meta_object_name": "FENGYUN 1C DEB",
        "meta_object_id": "1999-025EXM",
        "meta_epoch": "2025-11-29T06:55:22.773792",
        "meta_mean_motion": 13.85678237,
        "meta_eccentricity": 0.01723955,
        "meta_inclination": 99.9731,
        "meta_ra_of_asc_node": 359.205,
        "meta_arg_of_pericenter": 79.2855,
        "meta_mean_anomaly": 282.7657,
        "meta_ephemeris_type": 0,
        "meta_classification_type": "U",
        "meta_norad_cat_id": 41007,
        "meta_element_set_no": 999,
        "meta_rev_at_epoch": 57212,
        "meta_bstar": 0.0017167305,
        "meta_mean_motion_dot": 2.158e-05,
        "meta_mean_motion_ddot": 0,
        "tle_line1": "1 41007U 99025EXM 25333.28845803  .00002158  00000+0  17167-2 0  9990",
        "tle_line2": "2 41007  99.9731 359.2050 0172395  79.2855 282.7657 13.85678237572123"
      },
      "geometry": {
        "type": "Point",
        "coordinates": [
          26.37433292685552,
          -61.84653905475665
        ]
      }
    },
    {
      "type": "Feature",
      "properties": {
        "norad_id": 41011,
        "name": "FENGYUN 1C DEB",
        "group": "fengyun-1c-debris",
        "lat": -62.76034802260409,
        "lon": 43.623959289113806,
        "alt_km": 710.9257169126267,
        "timestamp": "2025-12-06T18:50:10.458905+00:00",
        "meta_object_name": "FENGYUN 1C DEB",
        "meta_object_id": "1999-025EXR",
        "meta_epoch": "2025-12-04T08:52:18.345792",
        "meta_mean_motion": 14.42818193,
        "meta_eccentricity": 0.0310776,
        "meta_inclination": 99.1701,
        "meta_ra_of_asc_node": 22.7359,
        "meta_arg_of_pericenter": 22.8881,
        "meta_mean_anomaly": 338.5819,
        "meta_ephemeris_type": 0,
        "meta_classification_type": "U",
        "meta_norad_cat_id": 41011,
        "meta_element_set_no": 999,
        "meta_rev_at_epoch": 57036,
        "meta_bstar": 0.0011197,
        "meta_mean_motion_dot": 6.661e-05,
        "meta_mean_motion_ddot": 0,
        "tle_line1": "1 41011U 99025EXR 25338.36965678  .00006661  00000+0  11197-2 0  9992",
        "tle_line2": "2 41011  99.1701  22.7359 0310776  22.8881 338.5819 14.42818193570366"
      },
      "geometry": {
        "type": "Point",
        "coordinates": [
          43.623959289113806,
          -62.76034802260409
        ]
      }
    },
    {
      "type": "Feature",
      "properties": {
        "norad_id": 41018,
        "name": "FENGYUN 1C DEB",
        "group": "fengyun-1c-debris",
        "lat": 39.31164631910164,
        "lon": -83.10653171440615,
        "alt_km": 1069.4467087338144,
        "timestamp": "2025-12-06T18:50:10.458915+00:00",
        "meta_object_name": "FENGYUN 1C DEB",
        "meta_object_id": "1999-025EXY",
        "meta_epoch": "2025-11-14T13:55:42.109536",
        "meta_mean_motion": 13.52269451,
        "meta_eccentricity": 0.03030631,
        "meta_inclination": 99.9325,
        "meta_ra_of_asc_node": 262.8906,
        "meta_arg_of_pericenter": 189.0805,
        "meta_mean_anomaly": 170.4772,
        "meta_ephemeris_type": 0,
        "meta_classification_type": "U",
        "meta_norad_cat_id": 41018,
        "meta_element_set_no": 999,
        "meta_rev_at_epoch": 87794,
        "meta_bstar": 0.0023936359,
        "meta_mean_motion_dot": 2.062e-05,
        "meta_mean_motion_ddot": 0,
        "tle_line1": "1 41018U 99025EXY 25318.58034849  .00002062  00000+0  23936-2 0  9993",
        "tle_line2": "2 41018  99.9325 262.8906 0303063 189.0805 170.4772 13.52269451877943"
      },
      "geometry": {
        "type": "Point",
        "coordinates": [
          -83.10653171440615,
          39.31164631910164
        ]
      }
    },
    {
      "type": "Feature",
      "properties": {
        "norad_id": 41822,
        "name": "FENGYUN 1C DEB",
        "group": "fengyun-1c-debris",
        "lat": -26.219815865860234,
        "lon": 51.367852480586556,
        "alt_km": 819.0502875745042,
        "timestamp": "2025-12-06T18:50:10.458925+00:00",
        "meta_object_name": "FENGYUN 1C DEB",
        "meta_object_id": "1999-025EXZ",
        "meta_epoch": "2025-12-03T03:18:49.388832",
        "meta_mean_motion": 14.24679698,
        "meta_eccentricity": 0.00547838,
        "meta_inclination": 98.7332,
        "meta_ra_of_asc_node": 43.4001,
        "meta_arg_of_pericenter": 248.0214,
        "meta_mean_anomaly": 111.5138,
        "meta_ephemeris_type": 0,
        "meta_classification_type": "U",
        "meta_norad_cat_id": 41822,
        "meta_element_set_no": 999,
        "meta_rev_at_epoch": 47236,
        "meta_bstar": 0.0021587019,
        "meta_mean_motion_dot": 5.059e-05,
        "meta_mean_motion_ddot": 0,
        "tle_line1": "1 41822U 99025EXZ 25337.13807163  .00005059  00000+0  21587-2 0  9994",
        "tle_line2": "2 41822  98.7332  43.4001 0054783 248.0214 111.5138 14.24679698472369"
      },
      "geometry": {
        "type": "Point",
        "coordinates": [
          51.367852480586556,
          -26.219815865860234
        ]
      }
    },
    {
      "type": "Feature",
      "properties": {
        "norad_id": 41823,
        "name": "FENGYUN 1C DEB",
        "group": "fengyun-1c-debris",
        "lat": 69.47053492886559,
        "lon": 19.9638367666038,
        "alt_km": 845.7617321733569,
        "timestamp": "2025-12-06T18:50:10.458935+00:00",
        "meta_object_name": "FENGYUN 1C DEB",
        "meta_object_id": "1999-025EYA",
        "meta_epoch": "2025-12-05T15:30:26.514144",
        "meta_mean_motion": 14.23445426,
        "meta_eccentricity": 0.00543182,
        "meta_inclination": 98.7212,
        "meta_ra_of_asc_node": 43.0344,
        "meta_arg_of_pericenter": 248.7187,
        "meta_mean_anomaly": 110.8186,
        "meta_ephemeris_type": 0,
        "meta_classification_type": "U",
        "meta_norad_cat_id": 41823,
        "meta_element_set_no": 999,
        "meta_rev_at_epoch": 47257,
        "meta_bstar": 0.0027749851,
        "meta_mean_motion_dot": 6.36e-05,
        "meta_mean_motion_ddot": 0,
        "tle_line1": "1 41823U 99025EYA 25339.64614021  .00006360  00000+0  27750-2 0  9996",
        "tle_line2": "2 41823  98.7212  43.0344 0054318 248.7187 110.8186 14.23445426472570"
      },
      "geometry": {
        "type": "Point",
        "coordinates": [
          19.9638367666038,
          69.47053492886559
        ]
      }
    },
    {
      "type": "Feature",
      "properties": {
        "norad_id": 41824,
        "name": "FENGYUN 1C DEB",
        "group": "fengyun-1c-debris",
        "lat": -74.35293528881782,
        "lon": 78.13568336248385,
        "alt_km": 787.1880329626974,
        "timestamp": "2025-12-06T18:50:10.458945+00:00",
        "meta_object_name": "FENGYUN 1C DEB",
        "meta_object_id": "1999-025EYB",
        "meta_epoch": "2025-12-03T03:30:36.467424",
        "meta_mean_motion": 14.24047096,
        "meta_eccentricity": 0.00564381,
        "meta_inclination": 98.7333,
        "meta_ra_of_asc_node": 41.2364,
        "meta_arg_of_pericenter": 254.7318,
        "meta_mean_anomaly": 104.7617,
        "meta_ephemeris_type": 0,
        "meta_classification_type": "U",
        "meta_norad_cat_id": 41824,
        "meta_element_set_no": 999,
        "meta_rev_at_epoch": 47223,
        "meta_bstar": 0.0020826395,
        "meta_mean_motion_dot": 4.823e-05,
        "meta_mean_motion_ddot": 0,
        "tle_line1": "1 41824U 99025EYB 25337.14625541  .00004823  00000+0  20826-2 0  9998",
        "tle_line2": "2 41824  98.7333  41.2364 0056438 254.7318 104.7617 14.24047096472231"
      },
      "geometry": {
        "type": "Point",
        "coordinates": [
          78.13568336248385,
          -74.35293528881782
        ]
      }
    }
  ]
}